FLOCK 4G-6              
1 62660U 25009BD  26068.71061311  .00012261  00000+0  45910-3 0  9991
2 62660  97.3980 150.7943 0002380 348.2637  11.8546 15.27432125121307
STARLINK-35995          
1 66817U 25278AC  26068.51711302  .00031910  00000+0  11625-2 0  9994
2 66817  43.0049 115.2556 0001994 292.3368  67.7273 15.27624209 15186
