[{"OBJECT_NAME":"FLOCK 4G-6","OBJECT_ID":"2025-009BD","EPOCH":"2026-03-09T17:03:16.973568","MEAN_MOTION":15.27432125,"ECCENTRICITY":0.00023795,"INCLINATION":97.398,"RA_OF_ASC_NODE":150.7943,"ARG_OF_PERICENTER":348.2637,"MEAN_ANOMALY":11.8546,"EPHEMERIS_TYPE":0,"CLASSIFICATION_TYPE":"U","NORAD_CAT_ID":62660,"ELEMENT_SET_NO":999,"REV_AT_EPOCH":12130,"BSTAR":0.00045909501,"MEAN_MOTION_DOT":0.00012261,"MEAN_MOTION_DDOT":0},{"OBJECT_NAME":"STARLINK-35995","OBJECT_ID":"2025-278AC","EPOCH":"2026-03-09T12:24:38.564928","MEAN_MOTION":15.27624209,"ECCENTRICITY":0.00019941,"INCLINATION":43.0049,"RA_OF_ASC_NODE":115.2556,"ARG_OF_PERICENTER":292.3368,"MEAN_ANOMALY":67.7273,"EPHEMERIS_TYPE":0,"CLASSIFICATION_TYPE":"U","NORAD_CAT_ID":66817,"ELEMENT_SET_NO":999,"REV_AT_EPOCH":1518,"BSTAR":0.0011625031,"MEAN_MOTION_DOT":0.0003191,"MEAN_MOTION_DDOT":0}]
